class,Object.Designation..,V11,Year.Range..,Potential.Impacts..,Impact.Probability,Vinfinity,H.x,Estimated.Diameter,Torino.Scale,Palermo.Scale.min,Palermo.Scale.max,Year.Min,Year.Max,H.y,diameter,albedo,rot_per,epoch,equinox,e,a,q,i,om,w,ma,ad,n,tp,per_y,moid,moid_jup,t_jup,first_obs,n_obs_used,E,theta,X,Y,Z,x,y,z,radius,round_dradius
APO,2011 QF48,bK11Q48F,2067-2067,2,3.1e-07,19.92,25.3,0.03,0,-6.41,-6.55,2067,2067,25.4,,,,2457800.5,J2000,0.636787152995488,2.12740411557851,0.772700505548388,21.5003716530074,154.121028620372,113.050470766496,288.181526031232,3.48210772560863,0.317635534101123,2458026.60339921,3.10301014071609,0.00180287,2.17116,3.363,2011-08-30,47,287.547413505536,-2.18828105980455,-1.15992423258702,-1.63342327045367,0,1.46769096366657,-1.14312882286005,-0.743394602697829,2.00337111035428,4
APO,2009 FP32,bK09F32P,2073-2117,16,1e-05,15.04,27.8,0.01,0,-6.42,-7.02,2073,2117,27.7,,,,2454920.5,J2000,0.593289870142455,1.95024780460443,0.793185537865059,0.871316525180859,18.1063532820717,236.450008915577,343.944552355706,3.10731007134379,0.361883996101864,2454964.86628261,2.72359732396157,0.00185694,1.96109,3.654,2009-03-29,20,343.442486902536,3.68563356461581,-2.19615889185998,-1.32853527910412,0,1.46513623779249,0.854845019844434,1.92632698752688,2.5667333063877,5
APO,2004 XB45,bK04X45B,2035-2066,2,4.1e-07,17.02,26.3,0.019,0,-6.43,-6.44,2035,2066,26.2,,,,2457800.5,J2000,0.581890351371642,1.55078012508528,0.648396133199247,3.16321624387447,84.9276832304741,86.1193446309754,81.8623049050749,2.45316411697131,0.510362474285274,2457640.0996786,1.93122796645238,0.000340734,2.52302,4.242,2004-12-13,51,82.0974958404726,-5.50395093633509,0.516079811160146,0.509756687710902,0,-0.282562014008523,-0.667952466736374,0.0137281671508909,0.725389724322783,1
APO,2014 EU,bK14E00U,2080-2117,9,1.6e-05,5.64,27.7,0.01,0,-6.43,-6.57,2080,2117,27.7,,,,2457800.5,J2000,0.280607028813142,1.29291557587827,0.930114377624837,0.330397119792809,186.584728126283,288.880562327163,30.6284025439682,1.65571677413171,0.670422872797808,2457754.81480072,1.47015611095478,0.00260134,3.44303,4.981,2014-03-06,43,30.3881619552767,4.99219748922293,0.305292212877181,-1.06245132210798,0,-1.02616685962618,0.20655510945259,-0.355419062595687,1.10544386881127,2
APO,2016 XL23,bK16X23L,2080-2098,3,6.1e-05,9.95,29.3,0.005,0,-6.43,-6.44,2080,2098,29.274,,,,2457800.5,J2000,0.559268475115648,2.09977115493315,0.925435343021866,1.85701927279727,249.103982692935,145.213511998308,33.4584166359105,3.27410696684444,0.323926236894386,2457697.20976653,3.04274915430488,0.000503753,2.17003,3.531,2016-12-01,16,33.8302403642097,-3.5408567875439,-2.74283611871621,1.15727410054243,0,1.92455753252099,2.1075302321118,-0.846656921469387,2.97698392973837,6
APO,2008 VM,bK08V00M,2020-2031,2,3.6e-05,10.26,30.2,0.003,0,-6.45,-6.45,2020,2031,30.2,,,,2454773.5,J2000,0.392765091301364,1.33439468798156,0.810291036524427,4.08856922043661,42.0115501807876,69.1705912505648,327.260889925569,1.85849833943869,0.639407339771022,2454824.70227442,1.54146851633032,0.000312716,3.2738,4.828,2008-11-03,18,327.54894305302,1.16843802492265,0.383017221634142,0.899997534793505,0,-0.624378432217108,-0.0969932797976394,-0.74662013886509,0.978109275440491,2
APO,2011 UL169,bK11UG9L,2057-2066,5,1.3e-05,9.35,28.3,0.007,0,-6.45,-6.5,2057,2066,28.3,,,,2457800.5,J2000,0.377673421998853,1.46041970621645,0.908857998215125,6.81235423210385,212.342796657448,132.89213118207,24.1386468977054,2.01198141421778,0.558454181563571,2457757.27595818,1.76491879890304,0.0012581,3.41869,4.537,2011-10-27,26,23.7690437641977,-1.75843336056473,-0.251267836022426,-1.32336370768656,0,-0.550082445865956,-1.12596492750381,-0.494003353250531,1.34700669198089,3
APO,2015 XP,bK15X00P,2067-2067,1,1.1e-06,8.23,25.8,0.024,0,-6.45,-6.45,2067,2067,25.8,,,,2457800.5,J2000,0.49294301911429,1.88421847941023,0.955406133498813,4.87599100678026,71.6919552359295,24.7138299112039,159.935486822971,2.81303082532164,0.381072128428822,2457380.80127398,2.5864559747031,0.000112379,2.40484,3.805,2015-12-02,62,160.029445106802,-3.25358550444026,-2.77848644485793,0.312478120064706,0,1.91344401609906,-1.485076173034,-1.39674989075346,2.79600241412242,6
APO,2016 JA6,bK16J06A,2081-2099,5,2.7e-06,11.33,26.4,0.018,0,-6.45,-6.51,2081,2099,26.3,,,,2457800.5,J2000,0.276199877634451,1.0876655645453,0.787252468710683,16.0097952980747,222.229330407029,269.301073221312,311.30185935294,1.38807866037992,0.868882410224769,2457856.54687133,1.13436095813309,0.000125924,3.72501,5.629,2016-05-04,64,311.240754080277,-2.97328930677008,-1.36112671024416,-0.231269967859588,0,1.34156548540608,-0.187574918814949,-0.26677596888135,1.38063453505041,3
APO,2012 UU158,bK12UF8U,2042-2078,5,2.9e-06,12.27,26.9,0.014,0,-6.46,-6.51,2042,2078,26.6,,,,2456225.5,J2000,0.372651740068329,1.09916821001839,0.689561263927244,5.96338581120164,26.8150273625557,261.829793026229,60.0070233842426,1.50877515610953,0.855279051589052,2456155.33924571,1.15240316191111,0.000903847,3.66041,5.582,2012-10-23,10,59.9215861952682,-2.98482725038221,-1.47949693348204,-0.233852753584147,0,-1.3888886464637,0.342068859691741,-0.444494667566539,1.49786457550129,3
APO,2013 NH6,bK13N06H,2060-2060,1,2.6e-08,21.71,23.4,0.073,0,-6.46,-6.46,2060,2060,23.3,,,,2456483.5,J2000,0.587281333800339,1.24459406055999,0.513667200634339,24.1609540224577,98.4161467027137,69.9052543564945,48.433601234882,1.97552092048564,0.709843300340504,2456415.26860131,1.38851248281806,0.00238902,3.2202,4.903,2013-07-03,39,47.9872495967349,-2.68016477582102,-1.53977310253597,-0.765618927690072,0,-0.508435227738737,0.938142032324026,1.34850164853876,1.71961436075957,3
APO,2014 OX3,bK14O03X,2108-2116,2,1.4e-05,12.79,27.8,0.009,0,-6.46,-6.46,2108,2116,27.8,,,,2456867.5,J2000,0.563498591788789,2.0052083447437,0.875276266237498,1.92193368042135,122.816799652919,123.294054946231,15.9099025362655,3.13514042324991,0.347108156459327,2456821.66442328,2.83953651052579,0.00273747,1.89941,3.62,2014-07-25,16,15.8372515601752,3.20997429819217,-3.11840476232004,-0.213574645196548,0,-2.22823373515828,0.160580730576457,2.1861497298221,3.12570990188328,6
APO,2006 GU2,bK06G02U,2022-2116,47,1.5e-05,7.31,27.8,0.009,0,-6.47,-7.25,2022,2116,27.8,,,,2457800.5,J2000,0.256027270591937,1.07986487347645,0.80339001731217,3.37815812472568,197.074763415608,266.232774775024,308.073072537016,1.35633972964074,0.878314297288635,2457859.62112284,1.12217948223113,0.00124953,3.77183,5.698,2006-04-07,15,308.139816085062,-5.94185665724116,0.766051286045264,0.272126302327756,0,0.746112026361364,-0.311468921787464,-0.0848012508732896,0.812949750765802,2
APO,2008 GM2,bK08G02M,2090-2117,46,3.8e-05,4.62,28.4,0.007,0,-6.47,-7.01,2090,2117,28.3,,,,2457800.5,J2000,0.157346475078759,1.05195974215596,0.886437584802956,4.09917897032376,195.087044435376,278.2772665163,143.447851909893,1.21748189950896,0.913493358027367,2457643.46782166,1.07896382026899,0.00128654,3.84277,5.832,2008-04-06,54,143.300482186899,4.91817553966447,0.203102568988505,-0.972985988916422,0,0.927766132553315,0.0331946050126684,-0.355106335683434,0.993957940839248,2
APO,2009 EW,bK09E00W,2075-2081,4,1.7e-06,12.82,26.4,0.018,0,-6.5,-6.67,2075,2081,26.4,,,0.06363,2457800.5,J2000,0.389115783195375,1.25745064023301,0.768156749529215,10.7134509417508,345.902299857738,258.203464209699,191.585393155444,1.7467445309368,0.698984675484561,2458041.44177276,1.41008282146427,0.00173868,3.32281,5.028,2009-03-02,53,191.599889266861,3.11688044496582,-1.74587164588356,0.0431531291430565,0,-1.47803916127558,-0.225236792350435,0.902551173930034,1.74640487758567,3
APO,2016 EM156,bK16EF6M,2108-2116,5,2e-05,8.81,27.9,0.009,0,-6.5,-6.56,2108,2116,27.9,,,,2457800.5,J2000,0.515036834288658,1.97457829166935,0.957597739272862,1.99678902580767,0.762986050652676,202.773867214893,111.851628538836,2.99155884406584,0.355216014109375,2457485.61659358,2.77472367297064,0.00264647,1.9727,3.691,2016-03-14,87,111.345050608994,-2.26058331381173,-1.37337992425977,-1.66474722054847,0,1.00948923162199,1.60871661392639,-1.02494783867282,2.15813709589628,4
APO,2017 FW90,bK17F90W,2101-2115,5,2.9e-05,4.16,28.1,0.008,0,-6.5,-6.8,2101,2115,28.141,,,,2457800.5,J2000,0.147327265447041,1.03011812021157,0.87835363447335,2.94604659275865,11.3753809544784,83.6784491962085,37.4385468515686,1.18188260594978,0.942700058225399,2457760.78583373,1.0455354009662,0.00280684,3.91297,5.93,2017-03-25,79,37.394337140281,-0.352597353633934,0.830880211933043,-0.3057429257296,0,-0.828548973152632,-0.260604805622028,0.171558729273733,0.885347763997625,2
APO,2008 SH148,bK08SE8H,2017-2116,162,9.2e-07,9.21,26.1,0.02,0,-6.51,-7.44,2017,2116,26.1,,,,2454738.5,J2000,0.650089667489449,2.7087620002919,0.947823812214084,3.60710381091716,202.355045426632,200.585005035727,353.590320195215,4.46970018836972,0.221079157763191,2454767.49269144,4.45825058019857,0.0094754,0.956352,3.015,2008-09-29,11,354.099672902473,2.70367084610268,-3.44410148594933,1.61268059260438,0,1.95406099731055,-2.96886169438429,-1.35280434567921,3.80296906893564,8
APO,2011 YQ1,bK11Y01Q,2113-2113,1,1.2e-06,11.65,25.6,0.026,0,-6.51,-6.51,2113,2113,25.6,,,,2457800.5,J2000,0.549362218003035,1.93295574524301,0.8710628897346,1.71613599599413,266.672264440271,127.75257633603,345.854771816255,2.99484860075142,0.366750916117219,2457839.06903299,2.68745418226177,0.00248904,2.44905,3.71,2011-12-18,62,346.156382234147,-5.27056118542038,0.553690350613157,0.886747029963544,0,0.978620700432547,-0.365342807291327,0.0414663400445555,1.04541537175961,2
APO,2014 SR223,bK14SM3R,2063-2063,1,1.6e-06,15.23,26.8,0.015,0,-6.51,-6.51,2063,2063,26.8,,,,2457800.5,J2000,0.658456289909992,2.56573369401776,0.876310204957766,1.7095703939973,186.578222124297,122.940194164131,219.002915499041,4.25515718307775,0.239820722825735,2458388.42702665,4.10984618741124,0.0051576,1.05711,3.085,2014-09-24,64,218.344463899528,3.99646745978459,-1.67973921427449,-1.93100609527612,0,-0.573421647285723,-0.591460621602038,2.42315296988929,2.55935702237203,5
